TIANMU-1 07             
1 57399U 23101A   26065.57454230  .00008352  00000+0  29795-3 0  9991
2 57399  97.2728 118.5929 0004609 142.4105 217.7458 15.29118809145964
STARLINK-34113          
1 64010U 25101S   26068.17653434  .00017990  00000+0  66188-3 0  9992
2 64010  43.0092   1.1306 0002648 277.4839  82.5712 15.27569228 46970
